{
  "medical_stores": [
    {
      "pincode": 562123,
      "name": "Apollo Pharmacy",
      "address": "5th Block, Koramangala,Bangalore, Karnataka",
      "location": "https://maps.google.com/maps/contrib/106302061552151730533",
      "status": "open"
    },
    {
      "pincode": 560008,
      "name": "MedPlus Store",
      "address": "1st Block, Nagawara,Bangalore, Karnataka",
      "location": "https://maps.google.com/maps/contrib/106302061552151730533",
      "status": "open"
    },
    {
      "pincode": 560029,
      "name": "Citizen Medical Store",
      "address": "7th Block, HSR Layout,Bangalore, Karnataka",
      "location": "https://maps.google.com/maps/contrib/106302061552151730533",
      "status": "open"
    },
    {
      "pincode": 568743,
      "name": "Vishwa Medicals",
      "address": "7th Block, HSR Layout,Bangalore, Karnataka",
      "location": "https://maps.google.com/maps/contrib/106302061552151730533",
      "status": "close"
    },
    {
      "pincode": 568743,
      "name": "Kalyan Hospitals",
      "address": "7th Block, HSR Layout,Bangalore, Karnataka",
      "location": "https://maps.google.com/maps/contrib/106302061552151730533",
      "status": "close"
    }
  ],
  "general_stores": [
    {
      "pincode": 560008,
      "name": "Rajastani Store",
      "address": "Main Road, Madanayakanahalli,Bangalore, Karnataka",
      "location": "https://maps.google.com/maps/contrib/106302061552151730533",
      "status": "close"
    },
    {
      "pincode": 562233,
      "name": "Citizen Super Market",
      "address": "5th Block, BTM Layout,Bangalore, Karnataka",
      "location": "https://maps.google.com/maps/contrib/106302061552151730533",
      "status": "open"
    },
    {
      "pincode": 561234,
      "name": "Sky Bazaar",
      "address": "1st Block, MG Road,Bangalore, Karnataka",
      "location": "https://maps.google.com/maps/contrib/106302061552151730533",
      "status": "close"
    },
    {
      "pincode": 565698,
      "name": "Reliance Fresh",
      "address": "7th Block, HSR Layout,Bangalore, Karnataka",
      "location": "https://maps.google.com/maps/contrib/106302061552151730533",
      "status": "open"
    },
    {
      "pincode": 568743,
      "name": "Raj Bazar",
      "address": "7th Block, HSR Layout,Bangalore, Karnataka",
      "location": "https://maps.google.com/maps/contrib/106302061552151730533",
      "status": "open"
    }
  ],
  "essential_services": [
    {
      "pincode": 562353,
      "name": "Canara Bank",
      "address": "5th Block, Vivek Nagar,Bangalore, Karnataka",
      "location": "https://maps.google.com/maps/contrib/106302061552151730533",
      "status": "close"
    },
    {
      "pincode": 563232,
      "name": "Police Station",
      "address": "1st Block, MG Road,Bangalore, Karnataka",
      "location": "https://maps.google.com/maps/contrib/106302061552151730533",
      "status": "close"
    },
    {
      "pincode": 568743,
      "name": "Petrol Bunk",
      "address": "7th Block, HSR Layout,Bangalore, Karnataka",
      "location": "https://maps.google.com/maps/contrib/106302061552151730533",
      "status": "open"
    }
  ]
}
